{"type": "FeatureCollection", "features": [ {"type": "Feature", "properties": {"norad_id": 35045, "name": "COSMOS 2251 DEB", "group": "cosmos-2251-debris", "lat": 73.12240071425154, "lon": 108.42718147263946, "alt_km": 1017.0426705434338, "timestamp": "2025-12-23T07:45:09.801020+00:00", "meta": {"OBJECT_NAME": "COSMOS 2251 DEB", "OBJECT_ID": "1993-036AHJ", "EPOCH": "2025-12-22T19:20:11.323968", "MEAN_MOTION": 14.00407667, "ECCENTRICITY": 0.01839618, "INCLINATION": 73.7191, "RA_OF_ASC_NODE": 34.9254, "ARG_OF_PERICENTER": 275.5727, "MEAN_ANOMALY": 82.445, "EPHEMERIS_TYPE": 0, "CLASSIFICATION_TYPE": "U", "NORAD_CAT_ID": 35045, "ELEMENT_SET_NO": 999, "REV_AT_EPOCH": 84784, "BSTAR": 0.00060913672, "MEAN_MOTION_DOT": 1.018e-05, "MEAN_MOTION_DDOT": 0}, "tle": {"line1": "1 35045U 93036AHJ 25356.80568662  .00001018  00000+0  60914-3 0  9992", "line2": "2 35045  73.7191  34.9254 0183961 275.5727  82.4450 14.00407667847846"}}, "geometry": {"type": "Point", "coordinates": [108.42718147263946, 73.12240071425154]}}, {"type": "Feature", "properties": {"norad_id": 35060, "name": "COSMOS 2251 DEB", "group": "cosmos-2251-debris", "lat": 55.88081833013411, "lon": 19.7363799879816, "alt_km": 760.5790928865263, "timestamp": "2025-12-23T07:45:09.801030+00:00", "meta": {"OBJECT_NAME": "COSMOS 2251 DEB", "OBJECT_ID": "1993-036AHP", "EPOCH": "2025-12-17T09:37:48.798336", "MEAN_MOTION": 14.41611034, "ECCENTRICITY": 0.00186104, "INCLINATION": 74.0362, "RA_OF_ASC_NODE": 235.6937, "ARG_OF_PERICENTER": 321.6138, "MEAN_ANOMALY": 38.3692, "EPHEMERIS_TYPE": 0, "CLASSIFICATION_TYPE": "U", "NORAD_CAT_ID": 35060, "ELEMENT_SET_NO": 999, "REV_AT_EPOCH": 87309, "BSTAR": 0.00026105938, "MEAN_MOTION_DOT": 8.25e-06, "MEAN_MOTION_DDOT": 0}, "tle": {"line1": "1 35060U 93036AHP 25351.40125924  .00000825  00000+0  26106-3 0  9990", "line2": "2 35060  74.0362 235.6937 0018610 321.6138  38.3692 14.41611034873096"}}, "geometry": {"type": "Point", "coordinates": [19.7363799879816, 55.88081833013411]}}, {"type": "Feature", "properties": {"norad_id": 35061, "name": "COSMOS 2251 DEB", "group": "cosmos-2251-debris", "lat": -69.10532731109318, "lon": -123.24703144854567, "alt_km": 683.8789518111871, "timestamp": "2025-12-23T07:45:09.801040+00:00", "meta": {"OBJECT_NAME": "COSMOS 2251 DEB", "OBJECT_ID": "1993-036AHQ", "EPOCH": "2025-12-22T19:00:50.101056", "MEAN_MOTION": 14.67906168, "ECCENTRICITY": 0.00395999, "INCLINATION": 74.0464, "RA_OF_ASC_NODE": 286.3095, "ARG_OF_PERICENTER": 34.3497, "MEAN_ANOMALY": 326.0221, "EPHEMERIS_TYPE": 0, "CLASSIFICATION_TYPE": "U", "NORAD_CAT_ID": 35061, "ELEMENT_SET_NO": 999, "REV_AT_EPOCH": 88722, "BSTAR": 0.00074768176, "MEAN_MOTION_DOT": 4.298e-05, "MEAN_MOTION_DDOT": 0}, "tle": {"line1": "1 35061U 93036AHQ 25356.79224654  .00004298  00000+0  74768-3 0  9993", "line2": "2 35061  74.0464 286.3095 0039599  34.3497 326.0221 14.67906168887221"}}, "geometry": {"type": "Point", "coordinates": [-123.24703144854567, -69.10532731109318]}}, {"type": "Feature", "properties": {"norad_id": 35062, "name": "COSMOS 2251 DEB", "group": "cosmos-2251-debris", "lat": 65.81402663301353, "lon": 113.73006887625553, "alt_km": 717.4702033733711, "timestamp": "2025-12-23T07:45:09.801049+00:00", "meta": {"OBJECT_NAME": "COSMOS 2251 DEB", "OBJECT_ID": "1993-036AHR", "EPOCH": "2025-12-20T22:03:28.302048", "MEAN_MOTION": 14.22993492, "ECCENTRICITY": 0.0126453, "INCLINATION": 74.0793, "RA_OF_ASC_NODE": 78.5797, "ARG_OF_PERICENTER": 75.845, "MEAN_ANOMALY": 285.6708, "EPHEMERIS_TYPE": 0, "CLASSIFICATION_TYPE": "U", "NORAD_CAT_ID": 35062, "ELEMENT_SET_NO": 999, "REV_AT_EPOCH": 85615, "BSTAR": 0.0011493, "MEAN_MOTION_DOT": 2.786e-05, "MEAN_MOTION_DDOT": 0}, "tle": {"line1": "1 35062U 93036AHR 25354.91907757  .00002786  00000+0  11493-2 0  9993", "line2": "2 35062  74.0793  78.5797 0126453  75.8450 285.6708 14.22993492856157"}}, "geometry": {"type": "Point", "coordinates": [113.73006887625553, 65.81402663301353]}}, {"type": "Feature", "properties": {"norad_id": 35065, "name": "COSMOS 2251 DEB", "group": "cosmos-2251-debris", "lat": -73.31895432499853, "lon": 67.59643293793442, "alt_km": 734.528775655429, "timestamp": "2025-12-23T07:45:09.801059+00:00", "meta": {"OBJECT_NAME": "COSMOS 2251 DEB", "OBJECT_ID": "1993-036AHU", "EPOCH": "2025-12-19T06:12:25.656192", "MEAN_MOTION": 14.4574331, "ECCENTRICITY": 0.0020018, "INCLINATION": 74.0185, "RA_OF_ASC_NODE": 182.1668, "ARG_OF_PERICENTER": 306.5523, "MEAN_ANOMALY": 53.3791, "EPHEMERIS_TYPE": 0, "CLASSIFICATION_TYPE": "U", "NORAD_CAT_ID": 35065, "ELEMENT_SET_NO": 999, "REV_AT_EPOCH": 68445, "BSTAR": 0.00028971, "MEAN_MOTION_DOT": 1.002e-05, "MEAN_MOTION_DDOT": 0}, "tle": {"line1": "1 35065U 93036AHU 25353.25863028  .00001002  00000+0  28971-3 0  9994", "line2": "2 35065  74.0185 182.1668 0020018 306.5523  53.3791 14.45743310684450"}}, "geometry": {"type": "Point", "coordinates": [67.59643293793442, -73.31895432499853]}}, {"type": "Feature", "properties": {"norad_id": 35071, "name": "COSMOS 2251 DEB", "group": "cosmos-2251-debris", "lat": 13.275853287132463, "lon": -32.22434202626021, "alt_km": 580.4120663515214, "timestamp": "2025-12-23T07:45:09.801069+00:00", "meta": {"OBJECT_NAME": "COSMOS 2251 DEB", "OBJECT_ID": "1993-036AJA", "EPOCH": "2025-12-15T18:34:31.974816", "MEAN_MOTION": 15.0351885, "ECCENTRICITY": 0.00682233, "INCLINATION": 73.9308, "RA_OF_ASC_NODE": 167.1964, "ARG_OF_PERICENTER": 62.71, "MEAN_ANOMALY": 298.1014, "EPHEMERIS_TYPE": 0, "CLASSIFICATION_TYPE": "U", "NORAD_CAT_ID": 35071, "ELEMENT_SET_NO": 999, "REV_AT_EPOCH": 67582, "BSTAR": 0.00048026378, "MEAN_MOTION_DOT": 6.858e-05, "MEAN_MOTION_DDOT": 0}, "tle": {"line1": "1 35071U 93036AJA 25349.77398119  .00006858  00000+0  48026-3 0  9994", "line2": "2 35071  73.9308 167.1964 0068223  62.7100 298.1014 15.03518850675828"}}, "geometry": {"type": "Point", "coordinates": [-32.22434202626021, 13.275853287132463]}}, {"type": "Feature", "properties": {"norad_id": 35073, "name": "COSMOS 2251 DEB", "group": "cosmos-2251-debris", "lat": 4.057195272647841, "lon": 127.82187638703208, "alt_km": 569.4826161515448, "timestamp": "2025-12-23T07:45:09.801093+00:00", "meta": {"OBJECT_NAME": "COSMOS 2251 DEB", "OBJECT_ID": "1993-036AJC", "EPOCH": "2025-12-21T14:59:25.763136", "MEAN_MOTION": 15.01208163, "ECCENTRICITY": 0.00113077, "INCLINATION": 74.0017, "RA_OF_ASC_NODE": 312.4522, "ARG_OF_PERICENTER": 54.373, "MEAN_ANOMALY": 305.8509, "EPHEMERIS_TYPE": 0, "CLASSIFICATION_TYPE": "U", "NORAD_CAT_ID": 35073, "ELEMENT_SET_NO": 999, "REV_AT_EPOCH": 67612, "BSTAR": 0.0026083672, "MEAN_MOTION_DOT": 0.00033655, "MEAN_MOTION_DDOT": 0}, "tle": {"line1": "1 35073U 93036AJC 25355.62460374  .00033655  00000+0  26084-2 0  9994", "line2": "2 35073  74.0017 312.4522 0011307  54.3730 305.8509 15.01208163676121"}}, "geometry": {"type": "Point", "coordinates": [127.82187638703208, 4.057195272647841]}}, {"type": "Feature", "properties": {"norad_id": 35284, "name": "COSMOS 2251 DEB", "group": "cosmos-2251-debris", "lat": 35.63957476302941, "lon": -103.22753392095036, "alt_km": 758.6540492330205, "timestamp": "2025-12-23T07:45:09.801104+00:00", "meta": {"OBJECT_NAME": "COSMOS 2251 DEB", "OBJECT_ID": "1993-036AJN", "EPOCH": "2025-12-20T11:57:49.053888", "MEAN_MOTION": 14.38325797, "ECCENTRICITY": 0.00170776, "INCLINATION": 74.0488, "RA_OF_ASC_NODE": 250.1381, "ARG_OF_PERICENTER": 325.4276, "MEAN_ANOMALY": 212.2402, "EPHEMERIS_TYPE": 0, "CLASSIFICATION_TYPE": "U", "NORAD_CAT_ID": 35284, "ELEMENT_SET_NO": 999, "REV_AT_EPOCH": 65637, "BSTAR": 0.00012056337, "MEAN_MOTION_DOT": 3.41e-06, "MEAN_MOTION_DDOT": 0}, "tle": {"line1": "1 35284U 93036AJN 25354.49848442  .00000341  00000+0  12056-3 0  9999", "line2": "2 35284  74.0488 250.1381 0017077 325.4276 212.2402 14.38325797656375"}}, "geometry": {"type": "Point", "coordinates": [-103.22753392095036, 35.63957476302941]}}, {"type": "Feature", "properties": {"norad_id": 35287, "name": "COSMOS 2251 DEB", "group": "cosmos-2251-debris", "lat": 38.98877253545481, "lon": 63.28646277295326, "alt_km": 778.060501341547, "timestamp": "2025-12-23T07:45:09.801114+00:00", "meta": {"OBJECT_NAME": "COSMOS 2251 DEB", "OBJECT_ID": "1993-036AJR", "EPOCH": "2025-12-22T11:53:54.676608", "MEAN_MOTION": 14.36384319, "ECCENTRICITY": 0.00179964, "INCLINATION": 74.0302, "RA_OF_ASC_NODE": 258.2089, "ARG_OF_PERICENTER": 352.7565, "MEAN_ANOMALY": 190.154, "EPHEMERIS_TYPE": 0, "CLASSIFICATION_TYPE": "U", "NORAD_CAT_ID": 35287, "ELEMENT_SET_NO": 999, "REV_AT_EPOCH": 87032, "BSTAR": 0.00012587961, "MEAN_MOTION_DOT": 3.43e-06, "MEAN_MOTION_DDOT": 0}, "tle": {"line1": "1 35287U 93036AJR 25356.49577172  .00000343  00000+0  12588-3 0  9995", "line2": "2 35287  74.0302 258.2089 0017996 352.7565 190.1540 14.36384319870324"}}, "geometry": {"type": "Point", "coordinates": [63.28646277295326, 38.98877253545481]}}, {"type": "Feature", "properties": {"norad_id": 35288, "name": "COSMOS 2251 DEB", "group": "cosmos-2251-debris", "lat": -39.37371868193696, "lon": -18.973064555824063, "alt_km": 682.3569893195063, "timestamp": "2025-12-23T07:45:09.801124+00:00", "meta": {"OBJECT_NAME": "COSMOS 2251 DEB", "OBJECT_ID": "1993-036AJS", "EPOCH": "2025-12-21T10:04:09.683328", "MEAN_MOTION": 14.65541798, "ECCENTRICITY": 0.00391307, "INCLINATION": 73.9498, "RA_OF_ASC_NODE": 358.3745, "ARG_OF_PERICENTER": 230.729, "MEAN_ANOMALY": 129.0405, "EPHEMERIS_TYPE": 0, "CLASSIFICATION_TYPE": "U", "NORAD_CAT_ID": 35288, "ELEMENT_SET_NO": 999, "REV_AT_EPOCH": 88005, "BSTAR": 0.00079112613, "MEAN_MOTION_DOT": 4.31e-05, "MEAN_MOTION_DDOT": 0}, "tle": {"line1": "1 35288U 93036AJS 25355.41955652  .00004310  00000+0  79113-3 0  9995", "line2": "2 35288  73.9498 358.3745 0039130 230.7290 129.0405 14.65541798880054"}}, "geometry": {"type": "Point", "coordinates": [-18.973064555824063, -39.37371868193696]}}]}